{
"type": "FeatureCollection",
"name": "layer1",
"crs": { "type": "name", "properties": { "name": "urn:ogc:def:crs:OGC:1.3:CRS84" } },
"features": [
{ "type": "Feature", "properties": { "layer": "Apollo Leisure Park" }, "geometry": { "type": "Polygon", "coordinates": [ [ [ -2.640545679764946, 53.415721689034875 ], [ -2.640544658170935, 53.415713784433613 ], [ -2.640541535737058, 53.415706250650025 ], [ -2.640537532248788, 53.415700159788663 ], [ -2.640532479693074, 53.415694344215957 ], [ -2.640526528516292, 53.415688803124787 ], [ -2.6405216920373, 53.415685350428191 ], [ -2.640520320726592, 53.415684207226192 ], [ -2.640519532326466, 53.415683806962107 ], [ -2.64051149112369, 53.415679355727697 ], [ -2.64050967469117, 53.415678628394517 ], [ -2.640507369534714, 53.415677418291239 ], [ -2.640504785422321, 53.415676668109285 ], [ -2.6405028630022, 53.415675896400806 ], [ -2.640493345718324, 53.415673340715081 ], [ -2.640483092420013, 53.415671867623502 ], [ -2.640449139690555, 53.415670242983921 ], [ -2.64040666483053, 53.415668205611368 ], [ -2.640309835340891, 53.415655547362093 ], [ -2.640324901220339, 53.415622846482641 ], [ -2.640329505225878, 53.415612835318079 ], [ -2.640340272746399, 53.415589460818985 ], [ -2.640349699790252, 53.415568996866313 ], [ -2.640350180455112, 53.415567942607602 ], [ -2.640088581896964, 53.415511017198263 ], [ -2.639692615850147, 53.415393319141828 ], [ -2.639379959738823, 53.415264585011947 ], [ -2.639343278322695, 53.415248538761468 ], [ -2.63926251125929, 53.415209303864572 ], [ -2.63916710653307, 53.415161149535649 ], [ -2.639060921425875, 53.415109457324967 ], [ -2.639011475945007, 53.415092032087699 ], [ -2.63893853550456, 53.415067999975783 ], [ -2.63892623545002, 53.415064470290829 ], [ -2.638851906589513, 53.415043160150532 ], [ -2.638743847648841, 53.415013958495734 ], [ -2.63873442451789, 53.415011644859476 ], [ -2.638724854178245, 53.415009547739395 ], [ -2.638715152078407, 53.415007694019032 ], [ -2.638705333127856, 53.415006074629872 ], [ -2.63869539746119, 53.415004698559912 ], [ -2.638676998369061, 53.415002801462236 ], [ -2.638668021817634, 53.415002175314129 ], [ -2.638659002693376, 53.415001720178964 ], [ -2.638649971354395, 53.41500145387181 ], [ -2.638640912756202, 53.415001376473164 ], [ -2.63863187216653, 53.415001496729644 ], [ -2.638622864764356, 53.41500182354882 ], [ -2.638613875639908, 53.415002365999172 ], [ -2.638604935016527, 53.41500313290782 ], [ -2.63858778505992, 53.415005274046528 ], [ -2.638578584953359, 53.415006797394327 ], [ -2.638569524017671, 53.415008571681803 ], [ -2.638560587073625, 53.415010588001373 ], [ -2.638551803805693, 53.415012819228167 ], [ -2.63854317434848, 53.415015274350253 ], [ -2.638534728521212, 53.415017935230729 ], [ -2.638518686623133, 53.415023737838077 ], [ -2.638512600201061, 53.415026215315905 ], [ -2.638511732880578, 53.41502657051381 ], [ -2.638504946780619, 53.415029546112542 ], [ -2.638498358546695, 53.415032673461461 ], [ -2.638489550924618, 53.415037295817008 ], [ -2.638521432837352, 53.415044343308658 ], [ -2.638515310574296, 53.415047441200862 ], [ -2.638509416131525, 53.415050681694431 ], [ -2.638507344493934, 53.41505199613708 ], [ -2.638503734464643, 53.4150540648698 ], [ -2.638497044461082, 53.415058433207967 ], [ -2.638496076813162, 53.415059121525296 ], [ -2.638491789962206, 53.415062209603157 ], [ -2.638486793102968, 53.415066110462924 ], [ -2.638482098881881, 53.415070126557978 ], [ -2.638477662300502, 53.41507426711766 ], [ -2.638475248049249, 53.415076814847993 ], [ -2.63847070148321, 53.415081648127902 ], [ -2.638467066159129, 53.41508604507667 ], [ -2.638463733069363, 53.415090530296816 ], [ -2.638460702079288, 53.415095094800371 ], [ -2.638458003143101, 53.41509972943846 ], [ -2.63845560603738, 53.41510442538398 ], [ -2.638453062569492, 53.415110398512049 ], [ -2.638452083284245, 53.415112318347674 ], [ -2.638445580637315, 53.415126177783662 ], [ -2.638441255966505, 53.415140798606643 ], [ -2.638430687640605, 53.415176522398959 ], [ -2.6384257420088, 53.415201915043305 ], [ -2.638422432216639, 53.415228036018348 ], [ -2.638420995047972, 53.415260645836234 ], [ -2.638422498758113, 53.415298741036615 ], [ -2.638424381389428, 53.415319953370563 ], [ -2.638429538422564, 53.415352842540742 ], [ -2.638432101867838, 53.415365269242649 ], [ -2.638433500040938, 53.415371221297747 ], [ -2.638435133673419, 53.415376821533457 ], [ -2.638437621921084, 53.415383226186201 ], [ -2.638441033002848, 53.415389967477097 ], [ -2.638445089787337, 53.41539662441722 ], [ -2.638454507383697, 53.415409607730908 ], [ -2.63845889066466, 53.41541495955871 ], [ -2.638463986696447, 53.415420685102482 ], [ -2.638465331627267, 53.415422080154293 ], [ -2.638469366420248, 53.41542626530957 ], [ -2.638475059790459, 53.415431691031038 ], [ -2.638480898892712, 53.415436801367413 ], [ -2.638493486869844, 53.415446486839805 ], [ -2.638500053593936, 53.415450955084872 ], [ -2.638507116519453, 53.41545540269901 ], [ -2.638514462598307, 53.415459669024116 ], [ -2.63852206174142, 53.415463754220987 ], [ -2.638529898500096, 53.415467631405996 ], [ -2.638538048366389, 53.415471318152917 ], [ -2.638549008642487, 53.415475798857699 ], [ -2.638559189255147, 53.415479456767052 ], [ -2.638570846255218, 53.415483241611874 ], [ -2.638592920501404, 53.415489406696587 ], [ -2.638602132701227, 53.415491694504738 ], [ -2.63861156881866, 53.415493864261194 ], [ -2.638621016613257, 53.415495809236155 ], [ -2.638630234967955, 53.415497503752853 ], [ -2.638645434496125, 53.415499732572336 ], [ -2.638654823685871, 53.415500778984779 ], [ -2.638664254371671, 53.41550158247879 ], [ -2.638690825107314, 53.415502581942789 ], [ -2.638727794907587, 53.415504748248452 ], [ -2.638726928878881, 53.415504186590375 ], [ -2.638769371123914, 53.415506071928654 ], [ -2.63876571707377, 53.415523268940781 ], [ -2.63876288172866, 53.415590052407701 ], [ -2.638808765543598, 53.415592674375937 ], [ -2.638810933984236, 53.415592797607282 ], [ -2.638848477229371, 53.415596075409979 ], [ -2.638881485726853, 53.415598954991019 ], [ -2.638903125866014, 53.415601248196452 ], [ -2.638924707851061, 53.415603676540066 ], [ -2.638946174199876, 53.415606420104041 ], [ -2.638980049931858, 53.415611946693375 ], [ -2.639006341853555, 53.415617423966552 ], [ -2.639049543770257, 53.415627817467694 ], [ -2.639055420995578, 53.41564047810521 ], [ -2.639163075392923, 53.415872251663203 ], [ -2.639186703245707, 53.415923783432049 ], [ -2.639203565138547, 53.415960582927269 ], [ -2.639252050763717, 53.416066381418894 ], [ -2.639285588195624, 53.416139576889016 ], [ -2.639328085181495, 53.416232292845699 ], [ -2.639412680901975, 53.416219732090248 ], [ -2.639478789489047, 53.416211477001376 ], [ -2.639478375658935, 53.416209969110866 ], [ -2.63953251086232, 53.416201930918106 ], [ -2.639553994425735, 53.416089537640133 ], [ -2.639688964029367, 53.416092032680659 ], [ -2.639764515655779, 53.416093425690022 ], [ -2.639724317760161, 53.416071708539903 ], [ -2.639662246184165, 53.41603817151217 ], [ -2.639791763146235, 53.416024246270432 ], [ -2.639990865416783, 53.416077291539104 ], [ -2.639995463126477, 53.416072862421402 ], [ -2.640007081903733, 53.416065069845146 ], [ -2.640024401750465, 53.416063197251141 ], [ -2.640297267648391, 53.416033671685391 ], [ -2.640373306512007, 53.416025443758663 ], [ -2.640384371148411, 53.416022831625384 ], [ -2.640504417637567, 53.415994475558108 ], [ -2.640525632257963, 53.415989462913238 ], [ -2.640502678021932, 53.41595282213413 ], [ -2.640708949637923, 53.415783221904221 ], [ -2.640781365727633, 53.415741233519753 ], [ -2.640792075435688, 53.415735036751549 ], [ -2.640787188716256, 53.415733247250216 ], [ -2.640779476757443, 53.415730681900392 ], [ -2.640776904302292, 53.41572970694363 ], [ -2.64077486273468, 53.41572901677749 ], [ -2.64076646944383, 53.415726167443403 ], [ -2.640756035938836, 53.415722717822263 ], [ -2.640745456044586, 53.41571953864748 ], [ -2.640734731112637, 53.415716719799057 ], [ -2.640731228867033, 53.415715947582051 ], [ -2.640726093828207, 53.415714653790552 ], [ -2.640723560250481, 53.415714262891349 ], [ -2.640714921304113, 53.415713086775028 ], [ -2.640713911422689, 53.415712966351123 ], [ -2.640703824773686, 53.415712571031911 ], [ -2.640700530949625, 53.415712651624943 ], [ -2.64069375028961, 53.415712984632101 ], [ -2.6406920688072, 53.415713227360342 ], [ -2.640689062722995, 53.415713432251515 ], [ -2.640686273615977, 53.415714058448735 ], [ -2.640683991565399, 53.415714385297484 ], [ -2.640675072188408, 53.41571657246709 ], [ -2.640674846789512, 53.415716591653805 ], [ -2.640666538386966, 53.415719386778449 ], [ -2.640665567785505, 53.415719877376908 ], [ -2.640659066763057, 53.415722797635595 ], [ -2.640656902728817, 53.415723968791148 ], [ -2.640648998010691, 53.415728595449444 ], [ -2.640647001899475, 53.415729927501062 ], [ -2.640641852279547, 53.415733667471926 ], [ -2.64063576642788, 53.41573918324454 ], [ -2.640629828680456, 53.415745543162792 ], [ -2.640605563756985, 53.415791839439173 ], [ -2.640523797489394, 53.415777356747626 ], [ -2.640542003295122, 53.415737349142205 ], [ -2.640544745558844, 53.415729604126767 ], [ -2.640545679764946, 53.415721689034875 ] ] ] } },
{ "type": "Feature", "properties": { "layer": "DeCathlon" }, "geometry": { "type": "Polygon", "coordinates": [ [ [ -2.593236075182162, 53.40570309241911 ], [ -2.592495785396632, 53.40566512938922 ], [ -2.592571406396229, 53.40521431581957 ], [ -2.59331169618176, 53.405254651965137 ], [ -2.593236075182162, 53.40570309241911 ] ] ] } },
{ "type": "Feature", "properties": { "layer": "Volvo" }, "geometry": { "type": "Polygon", "coordinates": [ [ [ -2.593408660806868, 53.395651379139828 ], [ -2.59362441901386, 53.395462886302845 ], [ -2.593228026028923, 53.395307304284685 ], [ -2.59301226782193, 53.395492805856527 ], [ -2.593408660806868, 53.395651379139828 ] ] ] } },
{ "type": "Feature", "properties": { "layer": "Appleton & Atlantic House" }, "geometry": { "type": "Polygon", "coordinates": [ [ [ -2.537816732892194, 53.414083273292775 ], [ -2.536795348258195, 53.413542279140465 ], [ -2.536569597223338, 53.413700615215809 ], [ -2.536569111855712, 53.413700302795306 ], [ -2.536494238120179, 53.413751956104399 ], [ -2.536072401933703, 53.414041428285252 ], [ -2.535876552636573, 53.414175682672344 ], [ -2.535850477788714, 53.414195844613651 ], [ -2.535844426568552, 53.414201570632457 ], [ -2.53575884614344, 53.414282484800111 ], [ -2.535756668140808, 53.414283959740921 ], [ -2.535707298582418, 53.414331228319355 ], [ -2.535679427310755, 53.41435211738461 ], [ -2.535560102043269, 53.414434360479241 ], [ -2.535445102951265, 53.41451370764328 ], [ -2.53540744270601, 53.414539827062335 ], [ -2.535495960808271, 53.414584750623462 ], [ -2.535562427324987, 53.414619247390632 ], [ -2.535562439759719, 53.414620236090677 ], [ -2.535564335441657, 53.414620236566769 ], [ -2.535850480657549, 53.414768765786512 ], [ -2.53587268200504, 53.414780306390881 ], [ -2.535941073335052, 53.414815872949973 ], [ -2.536153501883809, 53.414926324028713 ], [ -2.536176961169942, 53.414927827544233 ], [ -2.536215884429176, 53.414930331186277 ], [ -2.536272662148602, 53.414936089341651 ], [ -2.536740431463493, 53.41461503037285 ], [ -2.536901434395732, 53.414504526766486 ], [ -2.536925696855368, 53.41451724440676 ], [ -2.536926323383305, 53.414516819117523 ], [ -2.536940266350837, 53.414524873136806 ], [ -2.537022353197945, 53.414567918941053 ], [ -2.537037044668843, 53.414575672952246 ], [ -2.537072104792244, 53.414593977854366 ], [ -2.537077980933784, 53.414597043503932 ], [ -2.537083099878684, 53.414599717060511 ], [ -2.537261190745873, 53.414478304623131 ], [ -2.537436803302388, 53.414357298573044 ], [ -2.537626776927845, 53.414227490495669 ], [ -2.53771115354604, 53.414168297053784 ], [ -2.537731837556616, 53.414153785923787 ], [ -2.537782466365066, 53.414118268008153 ], [ -2.537824609750527, 53.414088702899413 ], [ -2.537815703710846, 53.414083979052386 ], [ -2.537816732892194, 53.414083273292775 ] ] ] } },
{ "type": "Feature", "properties": { "layer": "BT Warrington" }, "geometry": { "type": "Polygon", "coordinates": [ [ [ -2.529424185722172, 53.424209683722943 ], [ -2.529395043071311, 53.424241730919334 ], [ -2.529034645812461, 53.424700498892079 ], [ -2.52899327093359, 53.424755844334413 ], [ -2.528983118059845, 53.424780517692483 ], [ -2.528984481412077, 53.424781239721511 ], [ -2.528985992791649, 53.42478176334879 ], [ -2.528986899017343, 53.424782028990073 ], [ -2.52898780412811, 53.424782204751615 ], [ -2.528989612119781, 53.424782376515203 ], [ -2.528990515000678, 53.424782372517242 ], [ -2.528991416878123, 53.424782287627522 ], [ -2.529008455587869, 53.424784989615205 ], [ -2.529028057034169, 53.42478804877905 ], [ -2.52904766405855, 53.424791557338338 ], [ -2.529068781463561, 53.42479550862884 ], [ -2.529090668000759, 53.424800804779366 ], [ -2.529111049741019, 53.424806107590641 ], [ -2.529129174282562, 53.42481142039594 ], [ -2.529115068243885, 53.424826763267873 ], [ -2.52902449062792, 53.424925138701433 ], [ -2.529014107507493, 53.42493731911145 ], [ -2.529005218038726, 53.424948594059735 ], [ -2.528998624800745, 53.42496300480304 ], [ -2.528974019524967, 53.425005440447173 ], [ -2.528973886879427, 53.425005665746184 ], [ -2.528944873921407, 53.425054304966125 ], [ -2.528940881520914, 53.425069719887269 ], [ -2.528934375207237, 53.425094781575545 ], [ -2.5289329029741, 53.425111974043112 ], [ -2.528937618777635, 53.425140320765863 ], [ -2.528957308614404, 53.425169904515847 ], [ -2.529005167867038, 53.425202940937432 ], [ -2.529064880487752, 53.425239187659308 ], [ -2.529146209349346, 53.425275904847375 ], [ -2.529260487733455, 53.425314426389477 ], [ -2.529335982029925, 53.425335727061317 ], [ -2.529402935681231, 53.425350324209425 ], [ -2.529483063371678, 53.42536541122611 ], [ -2.529517932687722, 53.42537031716293 ], [ -2.529542852229473, 53.425373820056116 ], [ -2.529624145215029, 53.425378511185777 ], [ -2.529706024627347, 53.425380736829609 ], [ -2.529780391927203, 53.425379112728351 ], [ -2.529782295769229, 53.425376093160871 ], [ -2.529785705184225, 53.425370702959121 ], [ -2.529783079057793, 53.425376152606297 ], [ -2.529828055561868, 53.425379377735915 ], [ -2.529833613600659, 53.42537977554209 ], [ -2.529844279554358, 53.425379467572959 ], [ -2.529858963752091, 53.425381595622831 ], [ -2.529877430283067, 53.425382915912685 ], [ -2.529894741320333, 53.425383288551181 ], [ -2.529933889023924, 53.425384912588726 ], [ -2.529971509584308, 53.425384745701798 ], [ -2.530004604514617, 53.425383700037841 ], [ -2.530093327628806, 53.425378362748056 ], [ -2.530111362941747, 53.425376467056545 ], [ -2.530132413926297, 53.425375043355452 ], [ -2.530150471790558, 53.425374963221209 ], [ -2.530169298814733, 53.425376227935594 ], [ -2.530512375881877, 53.425372907224919 ], [ -2.530568806701106, 53.425372656616823 ], [ -2.530945736595798, 53.425368734887108 ], [ -2.530960032401012, 53.425368671350391 ], [ -2.530975821844716, 53.425367702330071 ], [ -2.530991616879376, 53.425367182704427 ], [ -2.531008147548798, 53.425365311542073 ], [ -2.531023156619279, 53.425362098876164 ], [ -2.531039681693107, 53.425359778312696 ], [ -2.531213793432749, 53.425323050502598 ], [ -2.531222047565836, 53.425321216112877 ], [ -2.531251302042058, 53.425313895277988 ], [ -2.531279034904688, 53.425305232937951 ], [ -2.531296261997722, 53.425298864422388 ], [ -2.531314235899906, 53.425292043161292 ], [ -2.531323781699095, 53.425287587386094 ], [ -2.531330784859686, 53.425284392310864 ], [ -2.531333686638409, 53.425282968221019 ], [ -2.531339644363412, 53.42527799808537 ], [ -2.531347123691433, 53.425274369446583 ], [ -2.531353888039346, 53.425272541673884 ], [ -2.531363510757553, 53.425270638268159 ], [ -2.5313716340158, 53.425266755085666 ], [ -2.531399825897783, 53.425252670598191 ], [ -2.531490792943407, 53.425207656167224 ], [ -2.531442082420832, 53.425165636065458 ], [ -2.531369802998569, 53.425101690047697 ], [ -2.531300527811979, 53.425037281200993 ], [ -2.531247962468716, 53.424985381860246 ], [ -2.531198401267021, 53.424933019714537 ], [ -2.531156436973255, 53.424886466274316 ], [ -2.531115960782699, 53.424838557933001 ], [ -2.53107317711255, 53.424786615025141 ], [ -2.531033386356491, 53.424733310527486 ], [ -2.530999670845439, 53.42468447324628 ], [ -2.530966691023169, 53.424634284415163 ], [ -2.530935204882236, 53.424583190089329 ], [ -2.530904454428587, 53.424530744215147 ], [ -2.530870677686515, 53.424476963510415 ], [ -2.530838400223726, 53.424422726710155 ], [ -2.530816779409738, 53.424378329864936 ], [ -2.530813990244664, 53.424371870561252 ], [ -2.530797410225217, 53.424333473587801 ], [ -2.530781898126943, 53.424296240367802 ], [ -2.530767138447074, 53.424259003802625 ], [ -2.53074691071258, 53.424205612286151 ], [ -2.530740623132027, 53.424184067896761 ], [ -2.530729832404981, 53.424163442359244 ], [ -2.530717492168796, 53.424139228317095 ], [ -2.530709197470423, 53.424125692578791 ], [ -2.530703669538565, 53.42411681855242 ], [ -2.530688370107125, 53.424096662463327 ], [ -2.530671582689911, 53.424077861252101 ], [ -2.530649478245092, 53.424055038845417 ], [ -2.530627396190275, 53.424034014028727 ], [ -2.530610692696056, 53.424021953787076 ], [ -2.530587919793649, 53.424005875688877 ], [ -2.530561407338378, 53.423991611887793 ], [ -2.530559133405365, 53.423990273716356 ], [ -2.530536433217723, 53.423980037789647 ], [ -2.530513003016189, 53.423971602794069 ], [ -2.530488079231608, 53.42396407327297 ], [ -2.53045187525315, 53.423957043257012 ], [ -2.530424733456026, 53.423952669534998 ], [ -2.530396086892332, 53.423948302487574 ], [ -2.53035238143793, 53.42394310343947 ], [ -2.530307193575383, 53.423939708649435 ], [ -2.530257485817118, 53.423935884480883 ], [ -2.530208558389536, 53.423934303945494 ], [ -2.530197272602551, 53.423934354033221 ], [ -2.530155144584206, 53.423934990416576 ], [ -2.530114543681256, 53.423937417702412 ], [ -2.5300701920157, 53.423940760463523 ], [ -2.530027350700498, 53.423944545930709 ], [ -2.529747798045701, 53.423972751287764 ], [ -2.529728258325015, 53.42397463562515 ], [ -2.529708729766692, 53.423977418756706 ], [ -2.52967717418266, 53.423981154057039 ], [ -2.529660651592763, 53.423983636222069 ], [ -2.529190500516523, 53.424019705151736 ], [ -2.529190256443388, 53.42402429035193 ], [ -2.529215732962902, 53.424025444871276 ], [ -2.529224025956491, 53.42402675640448 ], [ -2.529239870711935, 53.42403028159972 ], [ -2.529257989364983, 53.424035144989318 ], [ -2.529280661391808, 53.424043134166972 ], [ -2.529296242015932, 53.424049626719565 ], [ -2.529301839806763, 53.424052028804731 ], [ -2.529307145567618, 53.424055151261008 ], [ -2.529327588340031, 53.42406539742381 ], [ -2.529343527948462, 53.424076562383249 ], [ -2.529357951631177, 53.424086835210822 ], [ -2.529367855409811, 53.424096678641597 ], [ -2.529368618955593, 53.424097574105076 ], [ -2.529376237679352, 53.424105180543393 ], [ -2.529380858007065, 53.424113699114756 ], [ -2.529383170960952, 53.424118183099687 ], [ -2.529385495072733, 53.424123565881999 ], [ -2.529392489726717, 53.424141511823386 ], [ -2.529397957291551, 53.42415766683775 ], [ -2.529404929640672, 53.424173815183472 ], [ -2.529413412354781, 53.424190406258916 ], [ -2.529422653045221, 53.424207443398096 ], [ -2.529424185722172, 53.424209683722943 ] ] ] } },
{ "type": "Feature", "properties": { "layer": "Matalan & Primesight" }, "geometry": { "type": "Polygon", "coordinates": [ [ [ -2.596081840327507, 53.399756542683008 ], [ -2.596094346894407, 53.399747491244376 ], [ -2.596109059585989, 53.39974561985079 ], [ -2.596139685538416, 53.399741691272972 ], [ -2.596358866809351, 53.399713268094416 ], [ -2.596362769296259, 53.399712709226471 ], [ -2.596562523674845, 53.399686764972827 ], [ -2.596634196702222, 53.39967774975306 ], [ -2.596662525048739, 53.399674075247248 ], [ -2.596599662011215, 53.399526226744825 ], [ -2.596541401868407, 53.399291495818957 ], [ -2.596535990188825, 53.399270219324407 ], [ -2.596523902036167, 53.399223268127251 ], [ -2.596442375494087, 53.39923311465143 ], [ -2.596120324289307, 53.399272120343454 ], [ -2.596053210574497, 53.399280186592506 ], [ -2.595783707792294, 53.399312816005505 ], [ -2.595759020371766, 53.399214511481226 ], [ -2.59571902119099, 53.399043024330723 ], [ -2.595714230370179, 53.399023093023899 ], [ -2.595712491417473, 53.399015973555599 ], [ -2.595560063557174, 53.399017895282832 ], [ -2.594898629644522, 53.399031915024942 ], [ -2.594855771524881, 53.399033297601498 ], [ -2.594856926355054, 53.399048132438033 ], [ -2.594578163661814, 53.399056274782936 ], [ -2.594504499355797, 53.3990583503235 ], [ -2.594501492931116, 53.399058455216149 ], [ -2.594451931283585, 53.39906013177918 ], [ -2.594454218175796, 53.399097882554521 ], [ -2.594465951634137, 53.399238050165465 ], [ -2.594486905633998, 53.39949997076063 ], [ -2.594506680554737, 53.399720530511445 ], [ -2.594508371009763, 53.399739263839543 ], [ -2.594830546161633, 53.399722752020708 ], [ -2.594809354006683, 53.399803371022863 ], [ -2.594733225832841, 53.399810034328738 ], [ -2.594632988442839, 53.399818813459788 ], [ -2.594613325547935, 53.399820538591889 ], [ -2.594623834910923, 53.399827830029068 ], [ -2.594662038554749, 53.399832331508463 ], [ -2.595099122097363, 53.399883884205686 ], [ -2.595424537649405, 53.399923696753085 ], [ -2.595442317281601, 53.399926034875158 ], [ -2.595444599015594, 53.399925726837751 ], [ -2.595501528529025, 53.399932462561026 ], [ -2.595671744700442, 53.399952600519597 ], [ -2.595679623538143, 53.399953531918811 ], [ -2.595697693117183, 53.399947571838354 ], [ -2.595755253382351, 53.399928452334763 ], [ -2.59591581444522, 53.399875576801939 ], [ -2.596081840327507, 53.399756542683008 ] ] ] } },
{ "type": "Feature", "properties": { "layer": "Pure Gym" }, "geometry": { "type": "Polygon", "coordinates": [ [ [ -2.586546491425458, 53.390670434070977 ], [ -2.586589973092508, 53.390938843087433 ], [ -2.58670813557044, 53.391008032613023 ], [ -2.586803252382775, 53.390994611070425 ], [ -2.586891794842756, 53.390982039834689 ], [ -2.587087023778439, 53.390909616205604 ], [ -2.587157996464281, 53.390876906437818 ], [ -2.587225303082089, 53.390850956349659 ], [ -2.587334498283719, 53.390809518598495 ], [ -2.587487837141837, 53.390752581945904 ], [ -2.587521830707957, 53.390740306266316 ], [ -2.587541843631968, 53.390732629931939 ], [ -2.587562458709551, 53.390725004556813 ], [ -2.58757238857496, 53.390713431848617 ], [ -2.587401773790005, 53.390454126758556 ], [ -2.587398348298219, 53.390445604233179 ], [ -2.587389548388543, 53.390423526041864 ], [ -2.587328541806596, 53.390270512854329 ], [ -2.5872849637831, 53.39016121642382 ], [ -2.587057229906571, 53.390172505545756 ], [ -2.587010864991483, 53.390295243283681 ], [ -2.587000414039662, 53.390294099273191 ], [ -2.586859823956101, 53.390278764949912 ], [ -2.586863472976288, 53.390272958142084 ], [ -2.586873875611137, 53.390256403331406 ], [ -2.586901007102669, 53.39021317702931 ], [ -2.586922356476086, 53.390179183810325 ], [ -2.586850427117588, 53.390182756260309 ], [ -2.586857414530682, 53.390202083842411 ], [ -2.586772780484611, 53.390210096421484 ], [ -2.586661720090535, 53.390295093890714 ], [ -2.586643861099867, 53.390311775298372 ], [ -2.586625332190227, 53.39033112969522 ], [ -2.58661214128956, 53.39034830945986 ], [ -2.586598092870206, 53.390367641784664 ], [ -2.586587578542466, 53.390383738689231 ], [ -2.58657714525643, 53.390405722898919 ], [ -2.586568412380106, 53.390422341371 ], [ -2.586559739264374, 53.390441116875159 ], [ -2.586551967391991, 53.390462009311847 ], [ -2.586544173798572, 53.390480232162695 ], [ -2.586536446207446, 53.390504342393037 ], [ -2.586546087707022, 53.390542803199466 ], [ -2.586576144854682, 53.390659627241099 ], [ -2.586546491425458, 53.390670434070977 ] ] ] } },
{ "type": "Feature", "properties": { "layer": "Royal Mail" }, "geometry": { "type": "Polygon", "coordinates": [ [ [ -2.662822046122252, 53.406974214415406 ], [ -2.662823082443099, 53.406974109788763 ], [ -2.662684962778152, 53.406488406140433 ], [ -2.662373215921487, 53.406377686252064 ], [ -2.661228252602912, 53.405974952677553 ], [ -2.661136432409889, 53.405582922983861 ], [ -2.657041250967962, 53.405970722036685 ], [ -2.65704084638231, 53.405970823138226 ], [ -2.656074459361192, 53.406067226731771 ], [ -2.655582793224154, 53.406115777722732 ], [ -2.655584676573224, 53.406122823546227 ], [ -2.655584895441798, 53.406123361669337 ], [ -2.655596241484155, 53.406170580163533 ], [ -2.655601722884884, 53.406184662398772 ], [ -2.655609453553732, 53.406198282851527 ], [ -2.655619434874741, 53.406211531401155 ], [ -2.655620046196881, 53.406212157257535 ], [ -2.65563348975965, 53.406225566577568 ], [ -2.655649174303538, 53.406237974834305 ], [ -2.65566543424075, 53.406248672070198 ], [ -2.655680764068585, 53.406257576661666 ], [ -2.655696986697887, 53.40626584713857 ], [ -2.655714398805207, 53.406273212209797 ], [ -2.655732387682894, 53.406278956139275 ], [ -2.655752313949186, 53.406283520894249 ], [ -2.65577297154216, 53.406286733320165 ], [ -2.655794659901473, 53.406288501885321 ], [ -2.655832660212857, 53.406284787644836 ], [ -2.655886891182263, 53.406280085398699 ], [ -2.655897346923961, 53.406325142463459 ], [ -2.655909020910018, 53.406383873696591 ], [ -2.655915347940033, 53.406415757962556 ], [ -2.655924479869669, 53.406461784087767 ], [ -2.655900545831204, 53.406463650339305 ], [ -2.655879550290048, 53.406467810556805 ], [ -2.655859477960893, 53.406473314012295 ], [ -2.655857532275433, 53.406473953907124 ], [ -2.655838236891441, 53.406481071065912 ], [ -2.65582016554165, 53.406489529811907 ], [ -2.655803914345721, 53.406498967323358 ], [ -2.655797958669358, 53.40650295506596 ], [ -2.655783689097647, 53.40651408955538 ], [ -2.655771686770891, 53.406525930695089 ], [ -2.655761801277524, 53.406538479311493 ], [ -2.655756223836207, 53.406547498668814 ], [ -2.655750112481564, 53.406560925438541 ], [ -2.655746261465363, 53.406574609461408 ], [ -2.655744970233312, 53.406588459206318 ], [ -2.655745935196773, 53.406602296565246 ], [ -2.655747083478073, 53.406608492490584 ], [ -2.655802012367697, 53.406766482601157 ], [ -2.655820585221353, 53.406819953505448 ], [ -2.655903055112887, 53.407047185395399 ], [ -2.655971678057166, 53.407234763043455 ], [ -2.656045709662864, 53.407421861499451 ], [ -2.656054593194687, 53.407441947476471 ], [ -2.65606572744331, 53.407461661541106 ], [ -2.65607910964513, 53.407480823933156 ], [ -2.656081106550909, 53.407483509585617 ], [ -2.656097036159432, 53.407502028771809 ], [ -2.656114910127116, 53.407519818176517 ], [ -2.656134877488455, 53.407536787092901 ], [ -2.656145532515312, 53.40754490831246 ], [ -2.65618077081309, 53.40756691691243 ], [ -2.656210889451502, 53.407588594078724 ], [ -2.65624213535816, 53.407605321239231 ], [ -2.656276236437704, 53.407621852929395 ], [ -2.656311823722239, 53.407637207907797 ], [ -2.656348745409925, 53.407651297119941 ], [ -2.656386852465876, 53.407664211270962 ], [ -2.656391086277085, 53.407665626202579 ], [ -2.656430524966669, 53.407677094824066 ], [ -2.656470997218805, 53.407687299328977 ], [ -2.656512200812787, 53.407696151490036 ], [ -2.656554286162077, 53.407703650479768 ], [ -2.656580671411135, 53.407707550376209 ], [ -2.656623472875113, 53.40771270833384 ], [ -2.656638841705183, 53.40771433170594 ], [ -2.656687342413227, 53.407718379661247 ], [ -2.65672513306571, 53.407720508960765 ], [ -2.656771185577549, 53.407721873721897 ], [ -2.656817359429477, 53.407721350163698 ], [ -2.656847273016301, 53.407719927245473 ], [ -2.656887238223443, 53.407716741181908 ], [ -2.656926880431161, 53.407712118683897 ], [ -2.660995107819499, 53.407295339338567 ], [ -2.660997650946066, 53.407294426392319 ], [ -2.661000043657186, 53.407293514278393 ], [ -2.661002434974762, 53.407292512284833 ], [ -2.661004675876895, 53.407291511123603 ], [ -2.661006915385473, 53.407290420082767 ], [ -2.661011090784733, 53.407288059906527 ], [ -2.661014962565976, 53.407285521635771 ], [ -2.661016746647651, 53.407284163453163 ], [ -2.661018529335737, 53.407282715390927 ], [ -2.66102016160841, 53.407281268161071 ], [ -2.661021643465683, 53.407279821763602 ], [ -2.661024303562396, 53.407276750874253 ], [ -2.661026072315031, 53.407274404016 ], [ -2.661027100139087, 53.407272780356543 ], [ -2.661027977547806, 53.407271157529436 ], [ -2.661028703147708, 53.40726944565516 ], [ -2.661029430141051, 53.407267823660497 ], [ -2.661030005325598, 53.407266112618629 ], [ -2.661030430094864, 53.407264402409176 ], [ -2.661030978802844, 53.407260983655092 ], [ -2.661030897979916, 53.407255770638876 ], [ -2.661030243366197, 53.407252358544106 ], [ -2.661029765644188, 53.407250653329143 ], [ -2.661029138900529, 53.40724903882618 ], [ -2.661028360348246, 53.40724733527604 ], [ -2.661026427345301, 53.407243939244673 ], [ -2.66105343729272, 53.407241551572739 ], [ -2.661097741196663, 53.40723688391823 ], [ -2.661249115027633, 53.407221241579848 ], [ -2.661322967457681, 53.407212985553542 ], [ -2.661324927333106, 53.407232660020959 ], [ -2.661336012196639, 53.407239340195673 ], [ -2.661348885315639, 53.407244931820586 ], [ -2.661362793219757, 53.407249349179729 ], [ -2.661377733119725, 53.4072524125136 ], [ -2.661393253768781, 53.407254124320431 ], [ -2.661399727199022, 53.407254448025114 ], [ -2.661415667026347, 53.407254090100125 ], [ -2.66143113329851, 53.40725229659855 ], [ -2.661867256685505, 53.407205925898964 ], [ -2.662105720067276, 53.40715975055172 ], [ -2.662121324129154, 53.407157147211727 ], [ -2.662498094847018, 53.407115148135809 ], [ -2.662519877042595, 53.407113229575785 ], [ -2.662828498577984, 53.407109629755539 ], [ -2.662861511788869, 53.407106363422109 ], [ -2.662822046122252, 53.406974214415406 ] ] ] } },
{ "type": "Feature", "properties": { "layer": "Royal Mail" }, "geometry": { "type": "Polygon", "coordinates": [ [ [ -2.6609527, 53.4071306 ], [ -2.6606713, 53.4061444 ], [ -2.6582577, 53.4063891 ], [ -2.6585391, 53.4073753 ], [ -2.6609527, 53.4071306 ] ] ] } }
]
}
