{
"type": "FeatureCollection",
"name": "National Offices",
"crs": { "type": "name", "properties": { "name": "urn:ogc:def:crs:OGC:1.3:CRS84" } },
"features": [
{ "type": "Feature", "properties": { "id": "merged.1", "Name": null, "description": null, "timestamp": null, "begin": null, "end": null, "altitudeMode": null, "tessellate": -1, "extrude": 0, "visibility": -1, "drawOrder": null, "icon": null, "gml_id": "19 Cornwall Street" }, "geometry": { "type": "Polygon", "coordinates": [ [ [ -1.90136772947222, 52.483247850932202 ], [ -1.90136404122368, 52.483250994347003 ], [ -1.90130888989069, 52.483220831519702 ], [ -1.90128462284556, 52.483207775627697 ], [ -1.90124712044292, 52.483187067103103 ], [ -1.90120299989409, 52.4831627570004 ], [ -1.90115989380317, 52.483139166935501 ], [ -1.90107872615857, 52.483094777907901 ], [ -1.90054413391542, 52.483457074461299 ], [ -1.90062478553899, 52.483501805038799 ], [ -1.90067093527466, 52.483527402642103 ], [ -1.90068036227291, 52.4835326427933 ], [ -1.90084929901825, 52.483626344445597 ], [ -1.9008618002102, 52.483633097497098 ], [ -1.90089498494313, 52.483609301908999 ], [ -1.90091858427424, 52.4835917912513 ], [ -1.90096504059529, 52.483559466302097 ], [ -1.90128199097114, 52.483727396612302 ], [ -1.90128419772656, 52.483728297467103 ], [ -1.90173108249903, 52.483406828915903 ], [ -1.90172519950179, 52.483403677493598 ], [ -1.90164063288283, 52.483357757702201 ], [ -1.90162813066764, 52.483351454232498 ], [ -1.90159136229016, 52.483331645431001 ], [ -1.90157371336064, 52.4833221911423 ], [ -1.90156415415203, 52.483316789130498 ], [ -1.90152076661723, 52.483293828260301 ], [ -1.90148914705398, 52.4832762712429 ], [ -1.9014626732277, 52.483262314536098 ], [ -1.90139575293172, 52.483227197377303 ], [ -1.9013773167117, 52.483240666953598 ], [ -1.90136772947222, 52.483247850932202 ] ] ] } },
{ "type": "Feature", "properties": { "id": "merged.2", "Name": null, "description": null, "timestamp": null, "begin": null, "end": null, "altitudeMode": null, "tessellate": -1, "extrude": 0, "visibility": -1, "drawOrder": null, "icon": null, "gml_id": "3 Chamberlain Square" }, "geometry": { "type": "Polygon", "coordinates": [ [ [ -1.90509465138849, 52.4794608111294 ], [ -1.90415511334246, 52.479733816813898 ], [ -1.9036781722733, 52.479268614111497 ], [ -1.90407980685786, 52.479106993241899 ], [ -1.904743221127, 52.478975948857901 ], [ -1.90509465138849, 52.4794608111294 ] ] ] } },
{ "type": "Feature", "properties": { "id": "merged.3", "Name": null, "description": null, "timestamp": null, "begin": null, "end": null, "altitudeMode": null, "tessellate": -1, "extrude": 0, "visibility": -1, "drawOrder": null, "icon": null, "gml_id": "35 Newhall Street" }, "geometry": { "type": "Polygon", "coordinates": [ [ [ -1.90255262574191, 52.481859655283003 ], [ -1.90221200051171, 52.481674852377097 ], [ -1.90203580218047, 52.481783934562202 ], [ -1.90200262940654, 52.481803235482502 ], [ -1.90200409886317, 52.481804585210199 ], [ -1.90197239950002, 52.481823437848199 ], [ -1.90190015206767, 52.481867428735796 ], [ -1.90224274224503, 52.482089318012797 ], [ -1.90224977039401, 52.482087265137999 ], [ -1.90255029839609, 52.481886794236402 ], [ -1.90257378898956, 52.4818711350933 ], [ -1.90255262574191, 52.481859655283003 ] ] ] } },
{ "type": "Feature", "properties": { "id": "merged.4", "Name": null, "description": null, "timestamp": null, "begin": null, "end": null, "altitudeMode": null, "tessellate": -1, "extrude": 0, "visibility": -1, "drawOrder": null, "icon": null, "gml_id": "King Edward House" }, "geometry": { "type": "Polygon", "coordinates": [ [ [ -1.8972215377242, 52.478841627959099 ], [ -1.89736139262418, 52.478580629267903 ], [ -1.89661370681275, 52.4784277422862 ], [ -1.89646667986661, 52.478690925974803 ], [ -1.8972215377242, 52.478841627959099 ] ] ] } },
{ "type": "Feature", "properties": { "id": "merged.5", "Name": null, "description": null, "timestamp": null, "begin": null, "end": null, "altitudeMode": null, "tessellate": -1, "extrude": 0, "visibility": -1, "drawOrder": null, "icon": null, "gml_id": "Multistory" }, "geometry": { "type": "Polygon", "coordinates": [ [ [ -1.89512640374181, 52.4833900186729 ], [ -1.89559617276482, 52.483163988872199 ], [ -1.89562306793789, 52.482844050985399 ], [ -1.89502240907259, 52.482500087863201 ], [ -1.89482697081492, 52.482504455665797 ], [ -1.89469966699571, 52.482488076404003 ], [ -1.89458491425726, 52.482438938582199 ], [ -1.89441099213805, 52.482384340937998 ], [ -1.89435002974575, 52.482400720238303 ], [ -1.89409721511886, 52.4826496848532 ], [ -1.89428010229576, 52.482749051915697 ], [ -1.89461001641879, 52.482864797881398 ], [ -1.89472476915724, 52.4827283049651 ], [ -1.89497041173798, 52.482859338172901 ], [ -1.89491303536876, 52.482892096413799 ], [ -1.89500627196874, 52.482947785367401 ], [ -1.89507082038412, 52.482912843287103 ], [ -1.89511923169565, 52.482953245064998 ], [ -1.89511385266104, 52.483018761382603 ], [ -1.89496144668029, 52.483096288899098 ], [ -1.89503854617643, 52.483159621135201 ], [ -1.89491124235722, 52.483229504876 ], [ -1.89512640374181, 52.4833900186729 ] ] ] } },
{ "type": "Feature", "properties": { "id": "merged.6", "Name": null, "description": null, "timestamp": null, "begin": null, "end": null, "altitudeMode": null, "tessellate": -1, "extrude": 0, "visibility": -1, "drawOrder": null, "icon": null, "gml_id": "Beorma" }, "geometry": { "type": "Polygon", "coordinates": [ [ [ -1.8915941710115, 52.476863418575498 ], [ -1.89180753938454, 52.4767189211016 ], [ -1.89139335371921, 52.476502685922803 ], [ -1.89139245721344, 52.476503095460103 ], [ -1.89117819236669, 52.476665408468598 ], [ -1.8915941710115, 52.476863418575498 ] ] ] } },
{ "type": "Feature", "properties": { "id": "merged.7", "Name": null, "description": null, "timestamp": null, "begin": null, "end": null, "altitudeMode": null, "tessellate": -1, "extrude": 0, "visibility": -1, "drawOrder": null, "icon": null, "gml_id": "120 Edmund Street (let)" }, "geometry": { "type": "Polygon", "coordinates": [ [ [ -1.90190015206767, 52.481867428735796 ], [ -1.90197239950002, 52.481823437848199 ], [ -1.90194193534846, 52.481803157934998 ], [ -1.90185220442686, 52.481743443287399 ], [ -1.90182022596563, 52.481722173176799 ], [ -1.90159464761111, 52.481854587538898 ], [ -1.90154967902315, 52.481881070482103 ], [ -1.90132114883811, 52.482015729372499 ], [ -1.90133033874679, 52.482021535643902 ], [ -1.90139455025537, 52.482062233365603 ], [ -1.90140288731996, 52.482067517495402 ], [ -1.90155273402718, 52.482162460759 ], [ -1.90157258517458, 52.482174613901201 ], [ -1.90166154286228, 52.4822313254435 ], [ -1.90168801014328, 52.482247979108401 ], [ -1.90185637028975, 52.482354651463702 ], [ -1.90205766879416, 52.482215923388203 ], [ -1.90224274224503, 52.482089318012797 ], [ -1.90190015206767, 52.481867428735796 ] ] ] } },
{ "type": "Feature", "properties": { "id": "merged.8", "Name": null, "description": null, "timestamp": null, "begin": null, "end": null, "altitudeMode": null, "tessellate": -1, "extrude": 0, "visibility": -1, "drawOrder": null, "icon": null, "gml_id": "Colmore Gate" }, "geometry": { "type": "Polygon", "coordinates": [ [ [ -1.89670369357957, 52.481818022877299 ], [ -1.89650466929882, 52.4819176648096 ], [ -1.8970080572882, 52.4823104975167 ], [ -1.8970457105305, 52.482339980302399 ], [ -1.89692199273436, 52.482404405580397 ], [ -1.89693633682667, 52.482451359537002 ], [ -1.89705288257666, 52.482556186794298 ], [ -1.89710846593434, 52.4825638304387 ], [ -1.89750830750739, 52.482374922837799 ], [ -1.89730390419202, 52.482213313379198 ], [ -1.89723397674203, 52.482248256015097 ], [ -1.89671221038438, 52.481824574682499 ], [ -1.89670369357957, 52.481818022877299 ] ] ] } },
{ "type": "Feature", "properties": { "id": "merged.9", "Name": null, "description": null, "timestamp": null, "begin": null, "end": null, "altitudeMode": null, "tessellate": -1, "extrude": 0, "visibility": -1, "drawOrder": null, "icon": null, "gml_id": "Paradise Phase3" }, "geometry": { "type": "Polygon", "coordinates": [ [ [ -1.90633216554028, 52.479849434210699 ], [ -1.90593770300186, 52.479949899612201 ], [ -1.9064684344172, 52.480620391090802 ], [ -1.906974063671, 52.480659702977697 ], [ -1.90633216554028, 52.479849434210699 ] ] ] } },
{ "type": "Feature", "properties": { "id": "merged.10", "Name": null, "description": null, "timestamp": null, "begin": null, "end": null, "altitudeMode": null, "tessellate": -1, "extrude": 0, "visibility": -1, "drawOrder": null, "icon": null, "gml_id": "Paradise Phase 3" }, "geometry": { "type": "Polygon", "coordinates": [ [ [ -1.90618872461722, 52.480939253160003 ], [ -1.90533883714806, 52.480827870097102 ], [ -1.90512726178654, 52.4805854471619 ], [ -1.9054858640942, 52.480493719216497 ], [ -1.90556117057881, 52.4805854471619 ], [ -1.90616003643261, 52.480677174916103 ], [ -1.90623892894029, 52.480766718491701 ], [ -1.90618872461722, 52.480939253160003 ] ] ] } },
{ "type": "Feature", "properties": { "id": "merged.11", "Name": null, "description": null, "timestamp": null, "begin": null, "end": null, "altitudeMode": null, "tessellate": -1, "extrude": 0, "visibility": -1, "drawOrder": null, "icon": null, "gml_id": "Martineau Galleries" }, "geometry": { "type": "Polygon", "coordinates": [ [ [ -1.89531590264892, 52.481199145876701 ], [ -1.89455566575668, 52.481858698652303 ], [ -1.89130672884926, 52.481343287393798 ], [ -1.89198090118767, 52.480517743220702 ], [ -1.89439070869516, 52.480382335025702 ], [ -1.89531590264892, 52.481199145876701 ] ] ] } }
]
}
