{
"type": "FeatureCollection",
"name": "WBC_Post_Office",
"crs": { "type": "name", "properties": { "name": "urn:ogc:def:crs:OGC:1.3:CRS84" } },
"features": [
{ "type": "Feature", "properties": { "name": null }, "geometry": { "type": "Polygon", "coordinates": [ [ [ -2.662822046122252, 53.406974214415406 ], [ -2.662823082443097, 53.406974109788763 ], [ -2.662684962778151, 53.406488406140433 ], [ -2.662373215921485, 53.406377686252064 ], [ -2.661228252602911, 53.405974952677553 ], [ -2.661136432409887, 53.405582922983854 ], [ -2.657041250967962, 53.405970722036678 ], [ -2.65704084638231, 53.405970823138226 ], [ -2.656074459361191, 53.406067226731771 ], [ -2.655582793224154, 53.406115777722732 ], [ -2.655584676573223, 53.406122823546227 ], [ -2.655584895441796, 53.406123361669337 ], [ -2.655596241484153, 53.406170580163533 ], [ -2.655601722884884, 53.406184662398772 ], [ -2.655609453553731, 53.406198282851527 ], [ -2.655619434874741, 53.406211531401155 ], [ -2.655620046196881, 53.406212157257528 ], [ -2.655633489759649, 53.406225566577575 ], [ -2.655649174303537, 53.406237974834305 ], [ -2.655665434240748, 53.406248672070205 ], [ -2.655680764068584, 53.406257576661666 ], [ -2.655696986697886, 53.40626584713857 ], [ -2.655714398805205, 53.406273212209797 ], [ -2.655732387682893, 53.406278956139275 ], [ -2.655752313949184, 53.406283520894249 ], [ -2.655772971542158, 53.406286733320165 ], [ -2.655794659901471, 53.406288501885328 ], [ -2.655832660212857, 53.406284787644836 ], [ -2.655886891182262, 53.406280085398691 ], [ -2.65589734692396, 53.406325142463459 ], [ -2.655909020910017, 53.406383873696583 ], [ -2.655915347940032, 53.406415757962556 ], [ -2.655924479869668, 53.40646178408776 ], [ -2.655900545831203, 53.406463650339298 ], [ -2.655879550290047, 53.406467810556819 ], [ -2.655859477960892, 53.406473314012302 ], [ -2.655857532275431, 53.406473953907117 ], [ -2.655838236891439, 53.406481071065912 ], [ -2.655820165541648, 53.406489529811914 ], [ -2.655803914345719, 53.406498967323358 ], [ -2.655797958669358, 53.40650295506596 ], [ -2.655783689097645, 53.40651408955538 ], [ -2.655771686770891, 53.406525930695089 ], [ -2.655761801277523, 53.406538479311479 ], [ -2.655756223836206, 53.406547498668814 ], [ -2.655750112481564, 53.406560925438541 ], [ -2.655746261465362, 53.406574609461408 ], [ -2.65574497023331, 53.406588459206318 ], [ -2.655745935196772, 53.406602296565246 ], [ -2.655747083478071, 53.40660849249057 ], [ -2.655802012367695, 53.406766482601164 ], [ -2.655820585221353, 53.406819953505448 ], [ -2.655903055112886, 53.407047185395399 ], [ -2.655971678057166, 53.407234763043455 ], [ -2.656045709662863, 53.407421861499444 ], [ -2.656054593194685, 53.407441947476471 ], [ -2.656065727443309, 53.407461661541106 ], [ -2.656079109645129, 53.407480823933156 ], [ -2.656081106550908, 53.407483509585617 ], [ -2.656097036159432, 53.407502028771802 ], [ -2.656114910127114, 53.407519818176517 ], [ -2.656134877488455, 53.407536787092901 ], [ -2.656145532515311, 53.40754490831246 ], [ -2.656180770813088, 53.40756691691243 ], [ -2.6562108894515, 53.407588594078724 ], [ -2.656242135358159, 53.407605321239231 ], [ -2.656276236437703, 53.407621852929395 ], [ -2.656311823722238, 53.407637207907797 ], [ -2.656348745409924, 53.407651297119941 ], [ -2.656386852465876, 53.407664211270962 ], [ -2.656391086277084, 53.407665626202579 ], [ -2.656430524966669, 53.407677094824059 ], [ -2.656470997218805, 53.40768729932897 ], [ -2.656512200812785, 53.407696151490036 ], [ -2.656554286162076, 53.407703650479768 ], [ -2.656580671411133, 53.407707550376209 ], [ -2.656623472875111, 53.40771270833384 ], [ -2.656638841705183, 53.40771433170594 ], [ -2.656687342413225, 53.40771837966124 ], [ -2.65672513306571, 53.407720508960765 ], [ -2.656771185577548, 53.407721873721897 ], [ -2.656817359429476, 53.407721350163698 ], [ -2.656847273016301, 53.407719927245473 ], [ -2.656887238223441, 53.407716741181915 ], [ -2.65692688043116, 53.407712118683897 ], [ -2.660995107819498, 53.40729533933856 ], [ -2.660997650946065, 53.407294426392312 ], [ -2.661000043657185, 53.407293514278393 ], [ -2.661002434974761, 53.407292512284833 ], [ -2.661004675876894, 53.407291511123603 ], [ -2.661006915385472, 53.407290420082767 ], [ -2.661011090784732, 53.407288059906527 ], [ -2.661014962565975, 53.407285521635771 ], [ -2.66101674664765, 53.407284163453163 ], [ -2.661018529335737, 53.407282715390927 ], [ -2.661020161608409, 53.407281268161071 ], [ -2.661021643465682, 53.407279821763602 ], [ -2.661024303562395, 53.407276750874253 ], [ -2.66102607231503, 53.407274404016 ], [ -2.661027100139086, 53.407272780356529 ], [ -2.661027977547804, 53.407271157529436 ], [ -2.661028703147706, 53.407269445655153 ], [ -2.661029430141049, 53.407267823660483 ], [ -2.661030005325597, 53.407266112618629 ], [ -2.661030430094862, 53.407264402409176 ], [ -2.661030978802843, 53.407260983655092 ], [ -2.661030897979915, 53.407255770638876 ], [ -2.661030243366196, 53.407252358544106 ], [ -2.661029765644187, 53.407250653329143 ], [ -2.661029138900528, 53.407249038826173 ], [ -2.661028360348245, 53.407247335276033 ], [ -2.6610264273453, 53.407243939244673 ], [ -2.661053437292719, 53.407241551572753 ], [ -2.661097741196663, 53.407236883918237 ], [ -2.661249115027633, 53.407221241579855 ], [ -2.66132296745768, 53.407212985553542 ], [ -2.661324927333104, 53.407232660020952 ], [ -2.661336012196638, 53.407239340195666 ], [ -2.661348885315639, 53.407244931820586 ], [ -2.661362793219756, 53.407249349179729 ], [ -2.661377733119724, 53.4072524125136 ], [ -2.66139325376878, 53.407254124320431 ], [ -2.66139972719902, 53.407254448025107 ], [ -2.661415667026346, 53.407254090100118 ], [ -2.66143113329851, 53.40725229659855 ], [ -2.661867256685505, 53.407205925898957 ], [ -2.662105720067275, 53.40715975055172 ], [ -2.662121324129153, 53.407157147211727 ], [ -2.662498094847017, 53.407115148135809 ], [ -2.662519877042594, 53.407113229575792 ], [ -2.662828498577983, 53.407109629755539 ], [ -2.662861511788868, 53.407106363422109 ], [ -2.662822046122252, 53.406974214415406 ] ] ] } },
{ "type": "Feature", "properties": { "name": "Royal Mail" }, "geometry": { "type": "Polygon", "coordinates": [ [ [ -2.6609527, 53.4071306 ], [ -2.6606713, 53.4061444 ], [ -2.6582577, 53.4063891 ], [ -2.6585391, 53.4073753 ], [ -2.6609527, 53.4071306 ] ] ] } }
]
}
